IRIDIUM 57 [-]          
1 25273U 98019B   24036.39384493  .00000573  00000+0  19436-3 0  9994
2 25273  86.3997 353.7263 0002160  85.4452 274.6991 14.35069432353375
IRIDIUM 63 [-]          
1 25286U 98021B   24036.60618434  .00000525  00000+0  17535-3 0  9995
2 25286  86.3976 290.5704 0002272  85.7922 274.3534 14.35593688352434
IRIDIUM 69 [-]          
1 25319U 98026A   24036.50601389  .00000609  00000+0  18794-3 0  9998
2 25319  86.3997 305.3957 0001609 159.1621 200.9644 14.39786608351429
IRIDIUM 71 [-]          
1 25320U 98026B   24036.46610485  .00000603  00000+0  18507-3 0  9998
2 25320  86.3982 300.2051 0000833   8.5123 351.6090 14.40107201351939
IRIDIUM 73 [-]          
1 25344U 98032C   24036.63404384  .00000704  00000+0  17556-3 0  9994
2 25344  86.4386 257.7451 0001648 102.4539 257.6850 14.50276036358417
IRIDIUM 82 [-]          
1 25467U 98051A   24036.57953797  .00022996  00000+0  12638-2 0  9993
2 25467  86.3944 348.4062 0137891 347.6426  12.1436 15.06096501348508
IRIDIUM 2 [-]           
1 25527U 98066A   24036.48283386  .00060856  00000+0  95749-3 0  9998
2 25527  85.5132  28.1329 0008000 103.7315 256.4836 15.53339562387138
